CCSDS_OMM_VERS = 2.0
CREATION_DATE  = 
ORIGINATOR     = 

OBJECT_NAME    = SL-16 R/B
OBJECT_ID      = 1993-016B
CENTER_NAME    = EARTH
REF_FRAME      = TEME
TIME_SYSTEM    = UTC
MEAN_ELEMENT_THEORY = SGP/SGP4

EPOCH          = 2026-02-12T16:32:51.038304
MEAN_MOTION    = 14.15302474
ECCENTRICITY   = .0010499
INCLINATION    = 71.0057
RA_OF_ASC_NODE = 267.6924
ARG_OF_PERICENTER = 348.0587
MEAN_ANOMALY   = 12.0285

EPHEMERIS_TYPE = 0
CLASSIFICATION_TYPE = U
NORAD_CAT_ID   = 22566
ELEMENT_SET_NO = 999
REV_AT_EPOCH   = 69863
BSTAR          = -.10073E-3
MEAN_MOTION_DOT = -.244E-5
MEAN_MOTION_DDOT = 0

CCSDS_OMM_VERS = 2.0
CREATION_DATE  = 
ORIGINATOR     = 

OBJECT_NAME    = COSMOS 2242
OBJECT_ID      = 1993-024A
CENTER_NAME    = EARTH
REF_FRAME      = TEME
TIME_SYSTEM    = UTC
MEAN_ELEMENT_THEORY = SGP/SGP4

EPOCH          = 2026-02-12T16:41:28.124160
MEAN_MOTION    = 14.96445665
ECCENTRICITY   = .001736
INCLINATION    = 82.5191
RA_OF_ASC_NODE = 290.6235
ARG_OF_PERICENTER = 33.8507
MEAN_ANOMALY   = 326.3820

EPHEMERIS_TYPE = 0
CLASSIFICATION_TYPE = U
NORAD_CAT_ID   = 22626
ELEMENT_SET_NO = 999
REV_AT_EPOCH   = 77665
BSTAR          = .20309E-3
MEAN_MOTION_DOT = .2336E-4
MEAN_MOTION_DDOT = 0

CCSDS_OMM_VERS = 2.0
CREATION_DATE  = 
ORIGINATOR     = 

OBJECT_NAME    = SL-16 R/B
OBJECT_ID      = 1993-059B
CENTER_NAME    = EARTH
REF_FRAME      = TEME
TIME_SYSTEM    = UTC
MEAN_ELEMENT_THEORY = SGP/SGP4

EPOCH          = 2026-02-12T11:47:12.399936
MEAN_MOTION    = 14.17228262
ECCENTRICITY   = .00194751
INCLINATION    = 70.9890
RA_OF_ASC_NODE = 64.2664
ARG_OF_PERICENTER = 251.3396
MEAN_ANOMALY   = 108.5614

EPHEMERIS_TYPE = 0
CLASSIFICATION_TYPE = U
NORAD_CAT_ID   = 22803
ELEMENT_SET_NO = 999
REV_AT_EPOCH   = 67596
BSTAR          = -.10692464E-4
MEAN_MOTION_DOT = -.7E-6
MEAN_MOTION_DDOT = 0

CCSDS_OMM_VERS = 2.0
CREATION_DATE  = 
ORIGINATOR     = 

OBJECT_NAME    = ARIANE 40 R/B
OBJECT_ID      = 1993-061H
CENTER_NAME    = EARTH
REF_FRAME      = TEME
TIME_SYSTEM    = UTC
MEAN_ELEMENT_THEORY = SGP/SGP4

EPOCH          = 2026-02-12T18:27:19.778688
MEAN_MOTION    = 14.32847560
ECCENTRICITY   = .0010543
INCLINATION    = 98.4971
RA_OF_ASC_NODE = 113.1417
ARG_OF_PERICENTER = 4.4690
MEAN_ANOMALY   = 355.6587

EPHEMERIS_TYPE = 0
CLASSIFICATION_TYPE = U
NORAD_CAT_ID   = 22830
ELEMENT_SET_NO = 999
REV_AT_EPOCH   = 69053
BSTAR          = .87824E-4
MEAN_MOTION_DOT = .197E-5
MEAN_MOTION_DDOT = 0

CCSDS_OMM_VERS = 2.0
CREATION_DATE  = 
ORIGINATOR     = 

OBJECT_NAME    = COSMOS 2278
OBJECT_ID      = 1994-023A
CENTER_NAME    = EARTH
REF_FRAME      = TEME
TIME_SYSTEM    = UTC
MEAN_ELEMENT_THEORY = SGP/SGP4

EPOCH          = 2026-02-12T18:33:57.348288
MEAN_MOTION    = 14.14363459
ECCENTRICITY   = .0006815
INCLINATION    = 71.0501
RA_OF_ASC_NODE = 227.2252
ARG_OF_PERICENTER = 61.3463
MEAN_ANOMALY   = 298.8344

EPHEMERIS_TYPE = 0
CLASSIFICATION_TYPE = U
NORAD_CAT_ID   = 23087
ELEMENT_SET_NO = 999
REV_AT_EPOCH   = 64128
BSTAR          = .29657E-4
MEAN_MOTION_DOT = .1E-6
MEAN_MOTION_DDOT = 0

CCSDS_OMM_VERS = 2.0
CREATION_DATE  = 
ORIGINATOR     = 

OBJECT_NAME    = SL-16 R/B
OBJECT_ID      = 1994-023B
CENTER_NAME    = EARTH
REF_FRAME      = TEME
TIME_SYSTEM    = UTC
MEAN_ELEMENT_THEORY = SGP/SGP4

EPOCH          = 2026-02-12T14:51:46.107360
MEAN_MOTION    = 14.15004798
ECCENTRICITY   = .0004572
INCLINATION    = 70.9995
RA_OF_ASC_NODE = 123.5406
ARG_OF_PERICENTER = 309.3099
MEAN_ANOMALY   = 50.7618

EPHEMERIS_TYPE = 0
CLASSIFICATION_TYPE = U
NORAD_CAT_ID   = 23088
ELEMENT_SET_NO = 999
REV_AT_EPOCH   = 64254
BSTAR          = .13445E-3
MEAN_MOTION_DOT = .213E-5
MEAN_MOTION_DDOT = 0

CCSDS_OMM_VERS = 2.0
CREATION_DATE  = 
ORIGINATOR     = 

OBJECT_NAME    = SL-16 R/B
OBJECT_ID      = 1994-074B
CENTER_NAME    = EARTH
REF_FRAME      = TEME
TIME_SYSTEM    = UTC
MEAN_ELEMENT_THEORY = SGP/SGP4

EPOCH          = 2026-02-12T17:03:52.234272
MEAN_MOTION    = 14.79377667
ECCENTRICITY   = .0005413
INCLINATION    = 97.7142
RA_OF_ASC_NODE = 75.5366
ARG_OF_PERICENTER = 311.5626
MEAN_ANOMALY   = 167.1795

EPHEMERIS_TYPE = 0
CLASSIFICATION_TYPE = U
NORAD_CAT_ID   = 23343
ELEMENT_SET_NO = 999
REV_AT_EPOCH   = 68355
BSTAR          = .75574E-4
MEAN_MOTION_DOT = .514E-5
MEAN_MOTION_DDOT = 0

CCSDS_OMM_VERS = 2.0
CREATION_DATE  = 
ORIGINATOR     = 

OBJECT_NAME    = SL-16 R/B
OBJECT_ID      = 1994-077B
CENTER_NAME    = EARTH
REF_FRAME      = TEME
TIME_SYSTEM    = UTC
MEAN_ELEMENT_THEORY = SGP/SGP4

EPOCH          = 2026-02-12T09:34:06.516192
MEAN_MOTION    = 14.15559222
ECCENTRICITY   = .00041617
INCLINATION    = 70.9820
RA_OF_ASC_NODE = 45.6954
ARG_OF_PERICENTER = 232.6970
MEAN_ANOMALY   = 127.3773

EPHEMERIS_TYPE = 0
CLASSIFICATION_TYPE = U
NORAD_CAT_ID   = 23405
ELEMENT_SET_NO = 999
REV_AT_EPOCH   = 61265
BSTAR          = .17894723E-3
MEAN_MOTION_DOT = .302E-5
MEAN_MOTION_DDOT = 0

CCSDS_OMM_VERS = 2.0
CREATION_DATE  = 
ORIGINATOR     = 

OBJECT_NAME    = ARIANE 40+ R/B
OBJECT_ID      = 1995-021B
CENTER_NAME    = EARTH
REF_FRAME      = TEME
TIME_SYSTEM    = UTC
MEAN_ELEMENT_THEORY = SGP/SGP4

EPOCH          = 2026-02-12T19:23:15.036288
MEAN_MOTION    = 14.39753843
ECCENTRICITY   = .00063
INCLINATION    = 98.4551
RA_OF_ASC_NODE = 115.6211
ARG_OF_PERICENTER = 207.6445
MEAN_ANOMALY   = 263.1362

EPHEMERIS_TYPE = 0
CLASSIFICATION_TYPE = U
NORAD_CAT_ID   = 23561
ELEMENT_SET_NO = 999
REV_AT_EPOCH   = 61566
BSTAR          = .1097E-3
MEAN_MOTION_DOT = .3E-5
MEAN_MOTION_DDOT = 0

CCSDS_OMM_VERS = 2.0
CREATION_DATE  = 
ORIGINATOR     = 

OBJECT_NAME    = SL-16 R/B
OBJECT_ID      = 1995-058B
CENTER_NAME    = EARTH
REF_FRAME      = TEME
TIME_SYSTEM    = UTC
MEAN_ELEMENT_THEORY = SGP/SGP4

EPOCH          = 2026-02-12T16:29:25.051200
MEAN_MOTION    = 14.15494991
ECCENTRICITY   = .0011946
INCLINATION    = 71.0194
RA_OF_ASC_NODE = 232.7463
ARG_OF_PERICENTER = 167.7089
MEAN_ANOMALY   = 192.4328

EPHEMERIS_TYPE = 0
CLASSIFICATION_TYPE = U
NORAD_CAT_ID   = 23705
ELEMENT_SET_NO = 999
REV_AT_EPOCH   = 56431
BSTAR          = .1194E-3
MEAN_MOTION_DOT = .186E-5
MEAN_MOTION_DDOT = 0

CCSDS_OMM_VERS = 2.0
CREATION_DATE  = 
ORIGINATOR     = 

OBJECT_NAME    = SL-16 R/B
OBJECT_ID      = 1996-051B
CENTER_NAME    = EARTH
REF_FRAME      = TEME
TIME_SYSTEM    = UTC
MEAN_ELEMENT_THEORY = SGP/SGP4

EPOCH          = 2026-02-12T19:29:11.118336
MEAN_MOTION    = 14.12408496
ECCENTRICITY   = .0017242
INCLINATION    = 70.7566
RA_OF_ASC_NODE = 227.8952
ARG_OF_PERICENTER = 183.1491
MEAN_ANOMALY   = 176.9523

EPHEMERIS_TYPE = 0
CLASSIFICATION_TYPE = U
NORAD_CAT_ID   = 24298
ELEMENT_SET_NO = 999
REV_AT_EPOCH   = 51813
BSTAR          = .83978E-4
MEAN_MOTION_DOT = .106E-5
MEAN_MOTION_DDOT = 0

CCSDS_OMM_VERS = 2.0
CREATION_DATE  = 
ORIGINATOR     = 

OBJECT_NAME    = ORBVIEW 2 (SEASTAR)
OBJECT_ID      = 1997-037A
CENTER_NAME    = EARTH
REF_FRAME      = TEME
TIME_SYSTEM    = UTC
MEAN_ELEMENT_THEORY = SGP/SGP4

EPOCH          = 2026-02-12T11:08:41.458272
MEAN_MOTION    = 14.35475442
ECCENTRICITY   = .00030765
INCLINATION    = 98.8522
RA_OF_ASC_NODE = 207.1141
ARG_OF_PERICENTER = 123.0365
MEAN_ANOMALY   = 237.1115

EPHEMERIS_TYPE = 0
CLASSIFICATION_TYPE = U
NORAD_CAT_ID   = 24883
ELEMENT_SET_NO = 999
REV_AT_EPOCH   = 50485
BSTAR          = .14741001E-3
MEAN_MOTION_DOT = .377E-5
MEAN_MOTION_DDOT = 0

