SL-16 R/B               
1 22566U 93016B   26043.68947961 -.00000244  00000+0 -10073-3 0  9990
2 22566  71.0057 267.6924 0010499 348.0587  12.0285 14.15302474698638
COSMOS 2242             
1 22626U 93024A   26043.69546440  .00002336  00000+0  20309-3 0  9999
2 22626  82.5191 290.6235 0017360  33.8507 326.3820 14.96445665776651
SL-16 R/B               
1 22803U 93059B   26043.49111574 -.00000070  00000+0 -10692-4 0  9998
2 22803  70.9890  64.2664 0019475 251.3396 108.5614 14.17228262675966
ARIANE 40 R/B           
1 22830U 93061H   26043.76897892  .00000197  00000+0  87824-4 0  9994
2 22830  98.4971 113.1417 0010543   4.4690 355.6587 14.32847560690531
COSMOS 2278             
1 23087U 94023A   26043.77358042  .00000010  00000+0  29657-4 0  9992
2 23087  71.0501 227.2252 0006815  61.3463 298.8344 14.14363459641280
SL-16 R/B               
1 23088U 94023B   26043.61928365  .00000213  00000+0  13445-3 0  9999
2 23088  70.9995 123.5406 0004572 309.3099  50.7618 14.15004798642541
SL-16 R/B               
1 23343U 94074B   26043.71102123  .00000514  00000+0  75574-4 0  9992
2 23343  97.7142  75.5366 0005413 311.5626 167.1795 14.79377667683556
SL-16 R/B               
1 23405U 94077B   26043.39868653  .00000302  00000+0  17895-3 0  9991
2 23405  70.9820  45.6954 0004161 232.6970 127.3773 14.15559222612652
ARIANE 40+ R/B          
1 23561U 95021B   26043.80781292  .00000300  00000+0  10970-3 0  9998
2 23561  98.4551 115.6211 0006300 207.6445 263.1362 14.39753843615669
SL-16 R/B               
1 23705U 95058B   26043.68709550  .00000186  00000+0  11940-3 0  9991
2 23705  71.0194 232.7463 0011946 167.7089 192.4328 14.15494991564312
SL-16 R/B               
1 24298U 96051B   26043.81193424  .00000106  00000+0  83978-4 0  9998
2 24298  70.7566 227.8952 0017242 183.1491 176.9523 14.12408496518136
ORBVIEW 2 (SEASTAR)     
1 24883U 97037A   26043.46436873  .00000377  00000+0  14741-3 0  9993
2 24883  98.8522 207.1141 0003076 123.0365 237.1115 14.35475442504854
